start=new Date('2022-04-15T00:00:00.000Z').valueOf();
sats=[{"OBJECT_TYPE":"PAYLOAD","EPOCH":"2022-04-14T22:11:53.452608","SEMIMAJOR_AXIS":"6925.294","APOAPSIS":"548.560","MEAN_ELEMENT_THEORY":"SGP4","CLASSIFICATION_TYPE":"U","PERIOD":"95.591","TIME_SYSTEM":"UTC","EPHEMERIS_TYPE":"0","ELEMENT_SET_NO":"999","ECCENTRICITY":"0.00020230","TLE_LINE1":"1 47888U 21021AE  22104.92492422  .00006968  00000-0  48597-3 0  9999","REV_AT_EPOCH":"6145","COUNTRY_CODE":"US","BSTAR":"0.00048597000000","DECAY_DATE":null,"PERIAPSIS":"545.758","CENTER_NAME":"EARTH","GP_ID":"201257124","RCS_SIZE":"LARGE","MEAN_MOTION_DOT":"0.00006968","REF_FRAME":"TEME","FILE":"3401977","SITE":"AFETR","TLE_LINE2":"2 47888  53.0551 187.6401 0002023  39.0018 321.1116 15.06417713 61457","ARG_OF_PERICENTER":"39.0018","LAUNCH_DATE":"2021-03-14","OBJECT_ID":"2021-021AE","OBJECT_NAME":"STARLINK-2348","RA_OF_ASC_NODE":"187.6401","MEAN_MOTION":"15.06417713","NORAD_CAT_ID":"47888","INCLINATION":"53.0551","MEAN_MOTION_DDOT":"0.0000000000000","MEAN_ANOMALY":"321.1116"},{"ELEMENT_SET_NO":"999","ECCENTRICITY":"0.00018020","TIME_SYSTEM":"UTC","PERIOD":"95.591","EPHEMERIS_TYPE":"0","DECAY_DATE":null,"PERIAPSIS":"545.922","COUNTRY_CODE":"US","REV_AT_EPOCH":"6150","BSTAR":"0.00025548000000","TLE_LINE1":"1 47889U 21021AF  22104.93598940  .00003527  00000-0  25548-3 0  9992","EPOCH":"2022-04-14T22:27:49.484160","OBJECT_TYPE":"PAYLOAD","CLASSIFICATION_TYPE":"U","SEMIMAJOR_AXIS":"6925.305","MEAN_ELEMENT_THEORY":"SGP4","APOAPSIS":"548.418","OBJECT_NAME":"STARLINK-2349","RA_OF_ASC_NODE":"187.5919","MEAN_MOTION":"15.06414129","OBJECT_ID":"2021-021AF","MEAN_ANOMALY":"318.8667","INCLINATION":"53.0537","NORAD_CAT_ID":"47889","MEAN_MOTION_DDOT":"0.0000000000000","MEAN_MOTION_DOT":"0.00003527","REF_FRAME":"TEME","CENTER_NAME":"EARTH","GP_ID":"201256880","RCS_SIZE":"LARGE","LAUNCH_DATE":"2021-03-14","FILE":"3401977","ARG_OF_PERICENTER":"41.2458","TLE_LINE2":"2 47889  53.0537 187.5919 0001802  41.2458 318.8667 15.06414129 61500","SITE":"AFETR"},{"ARG_OF_PERICENTER":"35.3491","TLE_LINE2":"2 47890  53.0532 155.9506 0002368  35.3491 324.7670 15.42146381 61419","SITE":"AFETR","FILE":"3401581","LAUNCH_DATE":"2021-03-14","RCS_SIZE":"LARGE","GP_ID":"201227731","CENTER_NAME":"EARTH","REF_FRAME":"TEME","MEAN_MOTION_DOT":"0.00016989","MEAN_MOTION_DDOT":"0.0000000000000","INCLINATION":"53.0532","NORAD_CAT_ID":"47890","MEAN_ANOMALY":"324.7670","OBJECT_ID":"2021-021AG","OBJECT_NAME":"STARLINK-2350","RA_OF_ASC_NODE":"155.9506","MEAN_MOTION":"15.42146381","APOAPSIS":"441.392","MEAN_ELEMENT_THEORY":"SGP4","SEMIMAJOR_AXIS":"6817.913","CLASSIFICATION_TYPE":"U","EPOCH":"2022-04-14T20:21:34.910208","OBJECT_TYPE":"PAYLOAD","BSTAR":"0.00039912000000","COUNTRY_CODE":"US","REV_AT_EPOCH":"6141","TLE_LINE1":"1 47890U 21021AG  22104.84832072  .00016989  00000-0  39912-3 0  9997","PERIAPSIS":"438.163","DECAY_DATE":null,"EPHEMERIS_TYPE":"0","TIME_SYSTEM":"UTC","PERIOD":"93.376","ECCENTRICITY":"0.00023680","ELEMENT_SET_NO":"999"},{"BSTAR":"0.00070496000000","COUNTRY_CODE":"US","REV_AT_EPOCH":"6077","TLE_LINE1":"1 47891U 21021AH  22104.54436240  .00010240  00000-0  70496-3 0  9998","DECAY_DATE":null,"PERIAPSIS":"546.050","TIME_SYSTEM":"UTC","PERIOD":"95.591","EPHEMERIS_TYPE":"0","ELEMENT_SET_NO":"999","ECCENTRICITY":"0.00015920","SEMIMAJOR_AXIS":"6925.288","APOAPSIS":"548.255","MEAN_ELEMENT_THEORY":"SGP4","CLASSIFICATION_TYPE":"U","EPOCH":"2022-04-14T13:03:52.911360","OBJECT_TYPE":"PAYLOAD","INCLINATION":"53.0540","NORAD_CAT_ID":"47891","MEAN_MOTION_DDOT":"0.0000000000000","MEAN_ANOMALY":"300.5281","OBJECT_ID":"2021-021AH","RA_OF_ASC_NODE":"199.3488","OBJECT_NAME":"STARLINK-2351","MEAN_MOTION":"15.06419767","FILE":"3401660","TLE_LINE2":"2 47891  53.0540 199.3488 0001592  59.5865 300.5281 15.06419767 60770","ARG_OF_PERICENTER":"59.5865","SITE":"AFETR","LAUNCH_DATE":"2021-03-14","CENTER_NAME":"EARTH","GP_ID":"201228975","RCS_SIZE":"LARGE","MEAN_MOTION_DOT":"0.00010240","REF_FRAME":"TEME"},{"ECCENTRICITY":"0.00022100","ELEMENT_SET_NO":"999","PERIOD":"94.929","TIME_SYSTEM":"UTC","EPHEMERIS_TYPE":"0","DECAY_DATE":null,"PERIAPSIS":"513.626","TLE_LINE1":"1 47892U 21021AJ  22104.65925298  .00012741  00000-0  65294-3 0  9995","REV_AT_EPOCH":"6084","COUNTRY_CODE":"US","BSTAR":"0.00065294000000","OBJECT_TYPE":"PAYLOAD","EPOCH":"2022-04-14T15:49:19.457472","CLASSIFICATION_TYPE":"U","SEMIMAJOR_AXIS":"6893.284","APOAPSIS":"516.672","MEAN_ELEMENT_THEORY":"SGP4","MEAN_MOTION":"15.16922866","OBJECT_NAME":"STARLINK-2352","RA_OF_ASC_NODE":"194.9653","OBJECT_ID":"2021-021AJ","MEAN_ANOMALY":"322.5460","NORAD_CAT_ID":"47892","INCLINATION":"53.0542","MEAN_MOTION_DDOT":"0.0000000000000","MEAN_MOTION_DOT":"0.00012741","REF_FRAME":"TEME","GP_ID":"201227726","CENTER_NAME":"EARTH","RCS_SIZE":"LARGE","LAUNCH_DATE":"2021-03-14","FILE":"3401581","SITE":"AFETR","ARG_OF_PERICENTER":"37.5687","TLE_LINE2":"2 47892  53.0542 194.9653 0002210  37.5687 322.5460 15.16922866 60845"},{"CLASSIFICATION_TYPE":"U","SEMIMAJOR_AXIS":"6925.275","MEAN_ELEMENT_THEORY":"SGP4","APOAPSIS":"548.368","OBJECT_TYPE":"PAYLOAD","EPOCH":"2022-04-14T15:12:35.529120","DECAY_DATE":null,"PERIAPSIS":"545.912","TLE_LINE1":"1 47894U 21021AL  22104.63374455  .00008953  00000-0  61879-3 0  9993","COUNTRY_CODE":"US","BSTAR":"0.00061879000000","REV_AT_EPOCH":"6135","ELEMENT_SET_NO":"999","ECCENTRICITY":"0.00017730","PERIOD":"95.591","TIME_SYSTEM":"UTC","EPHEMERIS_TYPE":"0","LAUNCH_DATE":"2021-03-14","FILE":"3401977","SITE":"AFETR","TLE_LINE2":"2 47894  53.0541 188.9498 0001773  48.6808 311.4334 15.06424048 61359","ARG_OF_PERICENTER":"48.6808","MEAN_MOTION_DOT":"0.00008953","REF_FRAME":"TEME","GP_ID":"201257375","CENTER_NAME":"EARTH","RCS_SIZE":"LARGE","MEAN_ANOMALY":"311.4334","NORAD_CAT_ID":"47894","INCLINATION":"53.0541","MEAN_MOTION_DDOT":"0.0000000000000","MEAN_MOTION":"15.06424048","OBJECT_NAME":"STARLINK-2354","RA_OF_ASC_NODE":"188.9498","OBJECT_ID":"2021-021AL"},{"PERIAPSIS":"545.959","DECAY_DATE":null,"TLE_LINE1":"1 47895U 21021AM  22104.64479898  .00004581  00000-0  32612-3 0  9998","BSTAR":"0.00032612000000","COUNTRY_CODE":"US","REV_AT_EPOCH":"6138","ELEMENT_SET_NO":"999","ECCENTRICITY":"0.00017450","EPHEMERIS_TYPE":"0","PERIOD":"95.591","TIME_SYSTEM":"UTC","CLASSIFICATION_TYPE":"U","APOAPSIS":"548.376","MEAN_ELEMENT_THEORY":"SGP4","SEMIMAJOR_AXIS":"6925.302","OBJECT_TYPE":"PAYLOAD","EPOCH":"2022-04-14T15:28:30.631872","MEAN_ANOMALY":"299.3884","MEAN_MOTION_DDOT":"0.0000000000000","NORAD_CAT_ID":"47895","INCLINATION":"53.0542","OBJECT_NAME":"STARLINK-2355","MEAN_MOTION":"15.06415041","RA_OF_ASC_NODE":"188.9069","OBJECT_ID":"2021-021AM","LAUNCH_DATE":"2021-03-14","SITE":"AFETR","ARG_OF_PERICENTER":"60.7279","TLE_LINE2":"2 47895  53.0542 188.9069 0001745  60.7279 299.3884 15.06415041 61381","FILE":"3401977","REF_FRAME":"TEME","MEAN_MOTION_DOT":"0.00004581","RCS_SIZE":"LARGE","CENTER_NAME":"EARTH","GP_ID":"201255629"},{"REV_AT_EPOCH":"6071","COUNTRY_CODE":"US","BSTAR":"0.00010219000000","TLE_LINE1":"1 47896U 21021AN  22104.63788703  .00001241  00000-0  10219-3 0  9995","DECAY_DATE":null,"PERIAPSIS":"546.081","TIME_SYSTEM":"UTC","PERIOD":"95.592","EPHEMERIS_TYPE":"0","ELEMENT_SET_NO":"999","ECCENTRICITY":"0.00016140","SEMIMAJOR_AXIS":"6925.334","MEAN_ELEMENT_THEORY":"SGP4","APOAPSIS":"548.316","CLASSIFICATION_TYPE":"U","EPOCH":"2022-04-14T15:18:33.439392","OBJECT_TYPE":"PAYLOAD","INCLINATION":"53.0543","NORAD_CAT_ID":"47896","MEAN_MOTION_DDOT":"0.0000000000000","MEAN_ANOMALY":"313.3815","OBJECT_ID":"2021-021AN","OBJECT_NAME":"STARLINK-2356","RA_OF_ASC_NODE":"203.9353","MEAN_MOTION":"15.06404860","FILE":"3401684","ARG_OF_PERICENTER":"46.7308","TLE_LINE2":"2 47896  53.0543 203.9353 0001614  46.7308 313.3815 15.06404860 60713","SITE":"AFETR","LAUNCH_DATE":"2021-03-14","CENTER_NAME":"EARTH","GP_ID":"201229892","RCS_SIZE":"LARGE","MEAN_MOTION_DOT":"0.00001241","REF_FRAME":"TEME"},{"OBJECT_ID":"2021-021AP","OBJECT_NAME":"STARLINK-2357","RA_OF_ASC_NODE":"189.4830","MEAN_MOTION":"15.06402312","MEAN_MOTION_DDOT":"0.0000000000000","INCLINATION":"53.0538","NORAD_CAT_ID":"47897","MEAN_ANOMALY":"304.9465","RCS_SIZE":"LARGE","CENTER_NAME":"EARTH","GP_ID":"201223892","REF_FRAME":"TEME","MEAN_MOTION_DOT":"0.00003212","TLE_LINE2":"2 47897  53.0538 189.4830 0001662  55.1680 304.9465 15.06402312 61398","ARG_OF_PERICENTER":"55.1680","SITE":"AFETR","FILE":"3401567","LAUNCH_DATE":"2021-03-14","EPHEMERIS_TYPE":"0","TIME_SYSTEM":"UTC","PERIOD":"95.592","ELEMENT_SET_NO":"999","ECCENTRICITY":"0.00016620","BSTAR":"0.00023441000000","COUNTRY_CODE":"US","REV_AT_EPOCH":"6139","TLE_LINE1":"1 47897U 21021AP  22104.51116230  .00003212  00000-0  23441-3 0  9994","PERIAPSIS":"546.055","DECAY_DATE":null,"EPOCH":"2022-04-14T12:16:04.422720","OBJECT_TYPE":"PAYLOAD","APOAPSIS":"548.357","MEAN_ELEMENT_THEORY":"SGP4","SEMIMAJOR_AXIS":"6925.341","CLASSIFICATION_TYPE":"U"},{"FILE":"3401581","SITE":"AFETR","ARG_OF_PERICENTER":"42.2033","TLE_LINE2":"2 47898  53.0544 188.9404 0001527  42.2033 317.9074 15.06420643 60921","LAUNCH_DATE":"2021-03-14","GP_ID":"201227536","CENTER_NAME":"EARTH","RCS_SIZE":"LARGE","MEAN_MOTION_DOT":"0.00006404","REF_FRAME":"TEME","NORAD_CAT_ID":"47898","INCLINATION":"53.0544","MEAN_MOTION_DDOT":"0.0000000000000","MEAN_ANOMALY":"317.9074","OBJECT_ID":"2021-021AQ","MEAN_MOTION":"15.06420643","OBJECT_NAME":"STARLINK-2358","RA_OF_ASC_NODE":"188.9404","SEMIMAJOR_AXIS":"6925.285","APOAPSIS":"548.208","MEAN_ELEMENT_THEORY":"SGP4","CLASSIFICATION_TYPE":"U","OBJECT_TYPE":"PAYLOAD","EPOCH":"2022-04-14T15:17:53.534688","TLE_LINE1":"1 47898U 21021AQ  22104.63742517  .00006404  00000-0  44818-3 0  9998","COUNTRY_CODE":"US","BSTAR":"0.00044818000000","REV_AT_EPOCH":"6092","DECAY_DATE":null,"PERIAPSIS":"546.093","PERIOD":"95.591","TIME_SYSTEM":"UTC","EPHEMERIS_TYPE":"0","ECCENTRICITY":"0.00015270","ELEMENT_SET_NO":"999"}];
